IRIDIUM 106             
1 41917U 17003A   24306.06308230  .00000271  00000+0  89744-4 0  9995
2 41917  86.3971 336.4037 0002410  84.7194 275.4276 14.34217819408199
IRIDIUM 109             
1 41919U 17003C   24305.98697062  .00000398  00000+0  13515-3 0  9993
2 41919  86.3971 336.3867 0002170 104.7294 255.4142 14.34217582408195
IRIDIUM 102             
1 41920U 17003D   24306.09479559  .00000139  00000+0  42436-4 0  9995
2 41920  86.3969 336.2779 0002003  92.6767 267.4658 14.34214771408271
IRIDIUM 105             
1 41921U 17003E   24305.71668035  .00000040  00000+0  72674-5 0  9992
2 41921  86.3925 304.8605 0002366  89.9036 270.2431 14.34216281410073
IRIDIUM 104             
1 41922U 17003F   24306.03770951  .00000040  00000+0  73605-5 0  9995
2 41922  86.3970 336.3356 0002113 110.8202 249.3220 14.34214312408259
